NORAD_CAT_ID,OBJECT_NAME,OBJECT_TYPE,EPOCH,MEAN_MOTION,ECCENTRICITY,INCLINATION,RA_OF_ASC_NODE,ARG_OF_PERICENTER,MEAN_ANOMALY,BSTAR,MEAN_MOTION_DOT,MEAN_MOTION_DDOT,TLE_LINE0,TLE_LINE1,TLE_LINE2,SEMIMAJOR_AXIS,PERIOD,APOGEE,PERIGEE,DECAYED
51964.0,STARLINK-3690,PAYLOAD,2022-03-26 14:00:01,15.73195404,9.6e-05,53.2196,55.5299,74.2806,28.7546,0.00010966,0.00014794,0.0,0 STARLINK-3690,1 51964U 22025J   22085.58334491  .00014794  00000-0  10966-3 0  9990,2 51964  53.2196  55.5299 0000960  74.2806  28.7546 15.73195404  3947,6727.908,91.533,350.4190000000001,349.12699999999984,0.0
51964.0,STARLINK-3690,PAYLOAD,2022-03-26 22:00:00,15.73236578,0.0001025,53.2198,53.8797,88.0098,103.9398,-0.00031722,-0.0004497,0.0,0 STARLINK-3690,1 51964U 22025J   22085.91667824 -.00044970  00000-0 -31722-3 0  9990,2 51964  53.2198  53.8797 0001025  88.0098 103.9398 15.73236578  2951,6727.791,91.531,350.345,348.966,0.0
51964.0,STARLINK-3690,PAYLOAD,2022-03-27 06:00:00,15.73181704,0.000109,53.2197,52.2324,75.056,205.8416,-0.0002089,-0.00029809,0.0,0 STARLINK-3690,1 51964U 22025J   22086.25001157 -.00029809  00000-0 -20890-3 0  9997,2 51964  53.2197  52.2324 0001090  75.0560 205.8416 15.73181704  4057,6727.946999999999,91.534,350.546,349.079,0.0
51964.0,STARLINK-3690,PAYLOAD,2022-03-27 14:00:01,15.73191874,8.65e-05,53.2197,50.5816,80.5479,289.2616,0.00026067,0.00036108,0.0,0 STARLINK-3690,1 51964U 22025J   22086.58334491  .00036108  00000-0  26067-3 0  9993,2 51964  53.2197  50.5816 0000865  80.5479 289.2616 15.73191874  4106,6727.918000000002,91.534,350.365,349.201,0.0
51964.0,STARLINK-3690,PAYLOAD,2022-03-27 22:00:01,15.73222806,9.85e-05,53.2188,48.9313,89.8053,8.9902,0.00053177,0.00074749,0.0,0 STARLINK-3690,1 51964U 22025J   22086.91668981  .00074749  00000-0  53177-3 0  9999,2 51964  53.2188  48.9313 0000985  89.8053   8.9902 15.73222806  3116,6727.83,91.532,350.358,349.032,0.0
51964.0,STARLINK-3690,PAYLOAD,2022-03-28 08:00:01,15.73298552,9.990000000000004e-05,53.2176,46.8715,74.5059,225.4977,-0.00048642,-0.00068616,0.0,0 STARLINK-3690,1 51964U 22025J   22087.33334491 -.00068616  00000-0 -48642-3 0  9991,2 51964  53.2176  46.8715 0000999  74.5059 225.4977 15.73298552  4220,6727.614000000001,91.527,350.151,348.807,0.0
51964.0,STARLINK-3690,PAYLOAD,2022-03-28 14:00:01,15.73286512,8.83e-05,53.2173,45.6325,87.2285,189.6178,-0.0010026,-0.00139527,0.0,0 STARLINK-3690,1 51964U 22025J   22087.58335648 -.00139527  00000-0 -10026-2 0  9997,2 51964  53.2173  45.6325 0000883  87.2285 189.6178 15.73286512  3221,6727.649,91.528,350.108,348.9190000000001,0.0
51964.0,STARLINK-3690,PAYLOAD,2022-03-28 22:00:00,15.73210438,7.85e-05,53.2175,43.9825,94.5986,271.1469,-0.00012199,-0.0001771,0.0,0 STARLINK-3690,1 51964U 22025J   22087.91667824 -.00017710  00000-0 -12199-3 0  9991,2 51964  53.2175  43.9825 0000785  94.5986 271.1469 15.73210438  3278,6727.865,91.533,350.259,349.202,0.0
51964.0,STARLINK-3690,PAYLOAD,2022-03-29 14:00:01,15.73182483,0.0001139,53.2177,40.6839,92.0219,91.5384,-0.0010649,-0.00147369,0.0,0 STARLINK-3690,1 51964U 22025J   22088.58334491 -.00147369  00000-0 -10649-2 0  9997,2 51964  53.2177  40.6839 0001139  92.0219  91.5384 15.73182483  4410,6727.945,91.534,350.576,349.0440000000001,0.0
51964.0,STARLINK-3690,PAYLOAD,2022-03-29 22:00:00,15.73027461,0.0001208,53.2181,39.0341,97.233,175.1799,0.0014599,0.00207876,0.0,0 STARLINK-3690,1 51964U 22025J   22088.91667824  .00207876  00000-0  14599-2 0  9999,2 51964  53.2181  39.0341 0001208  97.2330 175.1799 15.73027461  3437,6728.387,91.543,351.065,349.439,0.0
51964.0,STARLINK-3690,PAYLOAD,2022-03-30 12:00:00,15.73267741,0.0001081,53.2178,36.1487,93.6763,244.228,-0.00057922,-0.0008136,0.0,0 STARLINK-3690,1 51964U 22025J   22089.50001157 -.00081360  00000-0 -57922-3 0  9994,2 51964  53.2178  36.1487 0001081  93.6763 244.2280 15.73267741  4566,6727.7019999999975,91.529,350.2940000000001,348.84,0.0
51964.0,STARLINK-3690,PAYLOAD,2022-03-30 14:00:01,15.732292800000002,0.000103,53.218,35.7357,98.7058,351.5151,-0.00020511,-0.0002934,0.0,0 STARLINK-3690,1 51964U 22025J   22089.58335648 -.00029340  00000-0 -20511-3 0  9991,2 51964  53.2180  35.7357 0001030  98.7058 351.5151 15.73229280  3538,6727.812,91.531,350.37,348.9840000000001,0.0
51964.0,STARLINK-3690,PAYLOAD,2022-03-30 20:00:01,15.73205345,0.0001083,53.2181,34.4982,104.528,322.3387,0.00056616,0.00079611,0.0,0 STARLINK-3690,1 51964U 22025J   22089.83334491  .00079611  00000-0  56616-3 0  9993,2 51964  53.2181  34.4982 0001083 104.5280 322.3387 15.73205345  4613,6727.88,91.533,350.474,349.016,0.0
51964.0,STARLINK-3690,PAYLOAD,2022-03-30 22:00:00,15.73254127,0.0001089,53.2181,34.0864,105.1675,73.9258,-6.4551e-05,-9.69e-05,0.0,0 STARLINK-3690,1 51964U 22025J   22089.91667824 -.00009690  00000-0 -64551-4 0  9991,2 51964  53.2181  34.0864 0001089 105.1675  73.9258 15.73254127  3593,6727.741,91.53,350.339,348.87300000000016,0.0
51964.0,STARLINK-3690,PAYLOAD,2022-03-31 06:00:00,15.73233363,0.0001072,53.218,32.4388,92.0085,176.0875,-0.00026887,-0.00038235,0.0,0 STARLINK-3690,1 51964U 22025J   22090.25001157 -.00038235  00000-0 -26887-3 0  9997,2 51964  53.2180  32.4388 0001072  92.0085 176.0875 15.73233363  4686,6727.8,91.531,350.386,348.944,0.0
51964.0,STARLINK-3690,PAYLOAD,2022-03-31 14:00:01,15.73179146,0.0001082,53.2181,30.7873,107.6641,249.3928,-1.2768e-05,-2.409e-05,0.0,0 STARLINK-3690,1 51964U 22025J   22090.58334491 -.00002409  00000-0 -12768-4 0  9991,2 51964  53.2181  30.7873 0001082 107.6641 249.3928 15.73179146  3690,6727.955,91.534,350.548,349.092,0.0
51964.0,STARLINK-3690,PAYLOAD,2022-03-31 22:00:00,15.7320054,0.000122,53.2184,29.138,107.9754,337.9767,0.00050656,0.00071077,0.0,0 STARLINK-3690,1 51964U 22025J   22090.91667824  .00071077  00000-0  50656-3 0  9999,2 51964  53.2184  29.1380 0001220 107.9754 337.9767 15.73200540  4789,6727.894,91.533,350.579,348.93800000000016,0.0
51964.0,STARLINK-3690,PAYLOAD,2022-04-01 08:00:01,15.73298176,9.34e-05,53.2183,27.0776,98.9427,188.2719,-0.00020668,-0.00029645,0.0,0 STARLINK-3690,1 51964U 22025J   22091.33334491 -.00029645  00000-0 -20668-3 0  9993,2 51964  53.2183  27.0776 0000934  98.9427 188.2719 15.73298176  4855,6727.615,91.527,350.1090000000001,348.852,0.0
51964.0,STARLINK-3690,PAYLOAD,2022-04-01 14:00:01,15.7327019,9.84e-05,53.2184,25.8389,112.0612,151.92,-0.00043298,-0.00061126,0.0,0 STARLINK-3690,1 51964U 22025J   22091.58334491 -.00061126  00000-0 -43298-3 0  9994,2 51964  53.2184  25.8389 0000984 112.0612 151.9200 15.73270190  4893,6727.695,91.529,350.222,348.898,0.0
51964.0,STARLINK-3690,PAYLOAD,2022-04-01 22:00:00,15.7325842,0.0001071,53.2184,24.1898,113.5267,239.4314,-0.00076329,-0.00106657,0.0,0 STARLINK-3690,1 51964U 22025J   22091.91667824 -.00106657  00000-0 -76329-3 0  9990,2 51964  53.2184  24.1898 0001071 113.5267 239.4314 15.73258420  3697,6727.729,91.53,350.314,348.87300000000016,0.0
51964.0,STARLINK-3690,PAYLOAD,2022-04-02 14:00:01,15.73137537,0.0001230999999999,53.2182,20.8905,112.5372,58.3761,0.0001452,0.00019752,0.0,0 STARLINK-3690,1 51964U 22025J   22092.58335648  .00019752  00000-0  14520-3 0  9992,2 51964  53.2182  20.8905 0001231 112.5372  58.3761 15.73137537  5041,6728.073,91.537,350.766,349.11,0.0
51964.0,STARLINK-3690,PAYLOAD,2022-04-02 22:00:01,15.73175792,0.0001486999999999,53.2185,19.2417,111.3019,148.4675,-0.00040075,-0.00056429,0.0,0 STARLINK-3690,1 51964U 22025J   22092.91668981 -.00056429  00000-0 -40075-3 0  9996,2 51964  53.2185  19.2417 0001487 111.3019 148.4675 15.73175792  3725,6727.964,91.535,350.83,348.829,0.0
51964.0,STARLINK-3690,PAYLOAD,2022-04-03 04:00:00,15.73113507,0.000143,53.2185,18.0064,102.043,134.309,8.3295e-05,0.00011043,0.0,0 STARLINK-3690,1 51964U 22025J   22093.16667824  .00011043  00000-0  83295-4 0  9992,2 51964  53.2185  18.0064 0001430 102.0430 134.3090 15.73113507  5141,6728.142,91.538,350.969,349.045,0.0
51964.0,STARLINK-3690,PAYLOAD,2022-04-03 22:00:00,15.73100058,0.0001131,53.2181,14.2944,118.4574,47.7759,0.0011412,0.00161968,0.0,0 STARLINK-3690,1 51964U 22025J   22093.91667824  .00161968  00000-0  11412-2 0  9997,2 51964  53.2181  14.2944 0001131 118.4574  47.7759 15.73100058  3694,6728.18,91.539,350.806,349.284,0.0
51964.0,STARLINK-3690,PAYLOAD,2022-04-04 04:00:00,15.73216783,0.0001051,53.2179,13.059,110.5938,32.2713,0.00010026,0.00013483,0.0,0 STARLINK-3690,1 51964U 22025J   22094.16667824  .00013483  00000-0  10026-3 0  9994,2 51964  53.2179  13.0590 0001051 110.5938  32.2713 15.73216783  5293,6727.847,91.532,350.4190000000001,349.005,0.0
51964.0,STARLINK-3690,PAYLOAD,2022-04-04 14:00:01,15.7322596,0.0001147,53.2176,10.9949,126.7059,217.3756,-3.208e-05,-5.124e-05,0.0,0 STARLINK-3690,1 51964U 22025J   22094.58334491 -.00005124  00000-0 -32080-4 0  9991,2 51964  53.2176  10.9949 0001147 126.7059 217.3756 15.73225960  3707,6727.821,91.532,350.458,348.914,0.0
51964.0,STARLINK-3690,PAYLOAD,2022-04-04 22:00:00,15.73245915,0.0001293,53.2179,9.3463,118.0231,315.019,0.00027193,0.0003779,0.0,0 STARLINK-3690,1 51964U 22025J   22094.91667824  .00037790  00000-0  27193-3 0  9997,2 51964  53.2179   9.3463 0001293 118.0231 315.0190 15.73245915  3701,6727.764,91.531,350.499,348.759,0.0
51964.0,STARLINK-3690,PAYLOAD,2022-04-05 06:00:00,15.73275621,0.0001118,53.2176,7.6979,112.086,49.9569,-0.00023264,-0.00033246,0.0,0 STARLINK-3690,1 51964U 22025J   22095.25001157 -.00033246  00000-0 -23264-3 0  9995,2 51964  53.2176   7.6979 0001118 112.0860  49.9569 15.73275621  5464,6727.68,91.529,350.297,348.792,0.0
51964.0,STARLINK-3690,PAYLOAD,2022-04-05 14:00:01,15.73199885,0.0001055,53.2177,6.0462,129.9142,121.1888,-0.0002709,-0.00038464,0.0,0 STARLINK-3690,1 51964U 22025J   22095.58335648 -.00038464  00000-0 -27090-3 0  9994,2 51964  53.2177   6.0462 0001055 129.9142 121.1888 15.73199885  3704,6727.896,91.533,350.47,349.051,0.0
